[{"OBJECT_NAME":"ICEYE-X31","OBJECT_ID":"2023-174AJ","EPOCH":"2026-03-09T23:06:20.433600","MEAN_MOTION":15.30950809,"ECCENTRICITY":0.00015021,"INCLINATION":97.3851,"RA_OF_ASC_NODE":144.9524,"ARG_OF_PERICENTER":332.6589,"MEAN_ANOMALY":27.4572,"EPHEMERIS_TYPE":0,"CLASSIFICATION_TYPE":"U","NORAD_CAT_ID":58288,"ELEMENT_SET_NO":999,"REV_AT_EPOCH":12955,"BSTAR":0.00066288467,"MEAN_MOTION_DOT":0.00019777,"MEAN_MOTION_DDOT":0},{"OBJECT_NAME":"STARLINK-32596","OBJECT_ID":"2024-239R","EPOCH":"2026-03-09T15:22:27.353568","MEAN_MOTION":15.3019764,"ECCENTRICITY":0.0001175,"INCLINATION":53.1574,"RA_OF_ASC_NODE":194.3407,"ARG_OF_PERICENTER":72.0115,"MEAN_ANOMALY":288.1014,"EPHEMERIS_TYPE":0,"CLASSIFICATION_TYPE":"U","NORAD_CAT_ID":62316,"ELEMENT_SET_NO":999,"REV_AT_EPOCH":6937,"BSTAR":0.0010551,"MEAN_MOTION_DOT":0.00031017,"MEAN_MOTION_DDOT":0}]
